[
  {
    "OBJECT_NAME": "STARLINK-5282",
    "OBJECT_ID": "2022-141N",
    "EPOCH": "2023-02-12T04:13:18.508224",
    "MEAN_MOTION": 15.0885095,
    "ECCENTRICITY": 0.0001002,
    "INCLINATION": 53.2193,
    "RA_OF_ASC_NODE": 358.3346,
    "ARG_OF_PERICENTER": 114.7577,
    "MEAN_ANOMALY": 245.3519,
    "EPHEMERIS_TYPE": 0,
    "CLASSIFICATION_TYPE": "U",
    "NORAD_CAT_ID": 54169,
    "ELEMENT_SET_NO": 999,
    "REV_AT_EPOCH": 1655,
    "BSTAR": 5.9287e-5,
    "MEAN_MOTION_DOT": 6.56e-6,
    "MEAN_MOTION_DDOT": 0
  },
  {
    "OBJECT_NAME": "STARLINK-5155",
    "OBJECT_ID": "2022-141P",
    "EPOCH": "2023-02-12T03:46:54.940512",
    "MEAN_MOTION": 15.08841921,
    "ECCENTRICITY": 0.0001038,
    "INCLINATION": 53.2179,
    "RA_OF_ASC_NODE": 358.9222,
    "ARG_OF_PERICENTER": 99.3239,
    "MEAN_ANOMALY": 260.7871,
    "EPHEMERIS_TYPE": 0,
    "CLASSIFICATION_TYPE": "U",
    "NORAD_CAT_ID": 54170,
    "ELEMENT_SET_NO": 999,
    "REV_AT_EPOCH": 1653,
    "BSTAR": 0.00012021,
    "MEAN_MOTION_DOT": 1.626e-5,
    "MEAN_MOTION_DDOT": 0
  },
  {
    "OBJECT_NAME": "STARLINK-5229",
    "OBJECT_ID": "2022-141Q",
    "EPOCH": "2023-02-11T22:21:39.691296",
    "MEAN_MOTION": 15.08839615,
    "ECCENTRICITY": 0.0001601,
    "INCLINATION": 53.2194,
    "RA_OF_ASC_NODE": 4.6298,
    "ARG_OF_PERICENTER": 108.3635,
    "MEAN_ANOMALY": 251.7531,
    "EPHEMERIS_TYPE": 0,
    "CLASSIFICATION_TYPE": "U",
    "NORAD_CAT_ID": 54171,
    "ELEMENT_SET_NO": 999,
    "REV_AT_EPOCH": 1644,
    "BSTAR": -3.6245e-5,
    "MEAN_MOTION_DOT": -8.65e-6,
    "MEAN_MOTION_DDOT": 0
  },
  {
    "OBJECT_NAME": "STARLINK-5117",
    "OBJECT_ID": "2022-141R",
    "EPOCH": "2023-02-12T03:36:17.458848",
    "MEAN_MOTION": 15.08898114,
    "ECCENTRICITY": 0.000105,
    "INCLINATION": 53.218,
    "RA_OF_ASC_NODE": 358.878,
    "ARG_OF_PERICENTER": 119.1777,
    "MEAN_ANOMALY": 240.932,
    "EPHEMERIS_TYPE": 0,
    "CLASSIFICATION_TYPE": "U",
    "NORAD_CAT_ID": 54172,
    "ELEMENT_SET_NO": 999,
    "REV_AT_EPOCH": 1654,
    "BSTAR": 0.0033449,
    "MEAN_MOTION_DOT": 0.00053435,
    "MEAN_MOTION_DDOT": 0
  },
  {
    "OBJECT_NAME": "STARLINK-5242",
    "OBJECT_ID": "2022-141S",
    "EPOCH": "2023-02-11T20:21:41.825664",
    "MEAN_MOTION": 15.08823189,
    "ECCENTRICITY": 0.0001263,
    "INCLINATION": 53.2191,
    "RA_OF_ASC_NODE": 359.84,
    "ARG_OF_PERICENTER": 115.2509,
    "MEAN_ANOMALY": 244.8614,
    "EPHEMERIS_TYPE": 0,
    "CLASSIFICATION_TYPE": "U",
    "NORAD_CAT_ID": 54173,
    "ELEMENT_SET_NO": 999,
    "REV_AT_EPOCH": 1650,
    "BSTAR": 0.00015068,
    "MEAN_MOTION_DOT": 2.11e-5,
    "MEAN_MOTION_DDOT": 0
  },
  {
    "OBJECT_NAME": "STARLINK-5248",
    "OBJECT_ID": "2022-141T",
    "EPOCH": "2023-02-12T01:58:41.449152",
    "MEAN_MOTION": 15.73237896,
    "ECCENTRICITY": 0.000123,
    "INCLINATION": 53.2157,
    "RA_OF_ASC_NODE": 333.42,
    "ARG_OF_PERICENTER": 147.7617,
    "MEAN_ANOMALY": 212.3479,
    "EPHEMERIS_TYPE": 0,
    "CLASSIFICATION_TYPE": "U",
    "NORAD_CAT_ID": 54174,
    "ELEMENT_SET_NO": 999,
    "REV_AT_EPOCH": 1688,
    "BSTAR": 4.3028e-5,
    "MEAN_MOTION_DOT": 5.432e-5,
    "MEAN_MOTION_DDOT": 0
  },
  {
    "OBJECT_NAME": "STARLINK-5256",
    "OBJECT_ID": "2022-141U",
    "EPOCH": "2023-02-11T22:55:26.757120",
    "MEAN_MOTION": 15.08874783,
    "ECCENTRICITY": 0.0001383,
    "INCLINATION": 53.2175,
    "RA_OF_ASC_NODE": 359.7893,
    "ARG_OF_PERICENTER": 101.6588,
    "MEAN_ANOMALY": 258.456,
    "EPHEMERIS_TYPE": 0,
    "CLASSIFICATION_TYPE": "U",
    "NORAD_CAT_ID": 54175,
    "ELEMENT_SET_NO": 999,
    "REV_AT_EPOCH": 1651,
    "BSTAR": 0.0028987,
    "MEAN_MOTION_DOT": 0.00046191,
    "MEAN_MOTION_DDOT": 0
  },
  {
    "OBJECT_NAME": "STARLINK-5154",
    "OBJECT_ID": "2022-141V",
    "EPOCH": "2023-02-12T03:20:23.161344",
    "MEAN_MOTION": 15.08834738,
    "ECCENTRICITY": 0.000132,
    "INCLINATION": 53.2181,
    "RA_OF_ASC_NODE": 358.8112,
    "ARG_OF_PERICENTER": 68.7363,
    "MEAN_ANOMALY": 291.377,
    "EPHEMERIS_TYPE": 0,
    "CLASSIFICATION_TYPE": "U",
    "NORAD_CAT_ID": 54176,
    "ELEMENT_SET_NO": 999,
    "REV_AT_EPOCH": 1654,
    "BSTAR": 2.4646e-5,
    "MEAN_MOTION_DOT": 1.04e-6,
    "MEAN_MOTION_DDOT": 0
  },
  {
    "OBJECT_NAME": "STARLINK-5186",
    "OBJECT_ID": "2022-141W",
    "EPOCH": "2023-02-11T21:09:27.069984",
    "MEAN_MOTION": 15.08837066,
    "ECCENTRICITY": 9.07e-5,
    "INCLINATION": 53.2189,
    "RA_OF_ASC_NODE": 0.0421,
    "ARG_OF_PERICENTER": 93.6765,
    "MEAN_ANOMALY": 266.4331,
    "EPHEMERIS_TYPE": 0,
    "CLASSIFICATION_TYPE": "U",
    "NORAD_CAT_ID": 54177,
    "ELEMENT_SET_NO": 999,
    "REV_AT_EPOCH": 1650,
    "BSTAR": 6.1614e-5,
    "MEAN_MOTION_DOT": 6.93e-6,
    "MEAN_MOTION_DDOT": 0
  },
  {
    "OBJECT_NAME": "STARLINK-5164",
    "OBJECT_ID": "2022-141X",
    "EPOCH": "2023-02-12T04:11:50.356896",
    "MEAN_MOTION": 15.07206975,
    "ECCENTRICITY": 9.14e-5,
    "INCLINATION": 53.2185,
    "RA_OF_ASC_NODE": 358.3031,
    "ARG_OF_PERICENTER": 77.7204,
    "MEAN_ANOMALY": 282.389,
    "EPHEMERIS_TYPE": 0,
    "CLASSIFICATION_TYPE": "U",
    "NORAD_CAT_ID": 54178,
    "ELEMENT_SET_NO": 999,
    "REV_AT_EPOCH": 1655,
    "BSTAR": -9.6066e-6,
    "MEAN_MOTION_DOT": -4.29e-6,
    "MEAN_MOTION_DDOT": 0
  },
  {
    "OBJECT_NAME": "STARLINK-5122",
    "OBJECT_ID": "2022-141Y",
    "EPOCH": "2023-02-12T03:25:40.721952",
    "MEAN_MOTION": 15.08853841,
    "ECCENTRICITY": 0.000126,
    "INCLINATION": 53.2171,
    "RA_OF_ASC_NODE": 358.828,
    "ARG_OF_PERICENTER": 120.6698,
    "MEAN_ANOMALY": 239.4418,
    "EPHEMERIS_TYPE": 0,
    "CLASSIFICATION_TYPE": "U",
    "NORAD_CAT_ID": 54179,
    "ELEMENT_SET_NO": 999,
    "REV_AT_EPOCH": 1677,
    "BSTAR": -6.937e-5,
    "MEAN_MOTION_DOT": -1.392e-5,
    "MEAN_MOTION_DDOT": 0
  },
  {
    "OBJECT_NAME": "STARLINK-5228",
    "OBJECT_ID": "2022-141Z",
    "EPOCH": "2023-02-11T12:35:24.237312",
    "MEAN_MOTION": 15.0883016,
    "ECCENTRICITY": 0.0001262,
    "INCLINATION": 53.2181,
    "RA_OF_ASC_NODE": 1.3711,
    "ARG_OF_PERICENTER": 80.492,
    "MEAN_ANOMALY": 279.6215,
    "EPHEMERIS_TYPE": 0,
    "CLASSIFICATION_TYPE": "U",
    "NORAD_CAT_ID": 54180,
    "ELEMENT_SET_NO": 999,
    "REV_AT_EPOCH": 1668,
    "BSTAR": 0.0022077,
    "MEAN_MOTION_DOT": 0.00035013,
    "MEAN_MOTION_DDOT": 0
  },
  {
    "OBJECT_NAME": "STARLINK-5227",
    "OBJECT_ID": "2022-141AA",
    "EPOCH": "2023-02-12T03:09:45.875808",
    "MEAN_MOTION": 15.0888348,
    "ECCENTRICITY": 0.0001778,
    "INCLINATION": 53.2173,
    "RA_OF_ASC_NODE": 358.7657,
    "ARG_OF_PERICENTER": 78.3261,
    "MEAN_ANOMALY": 281.793,
    "EPHEMERIS_TYPE": 0,
    "CLASSIFICATION_TYPE": "U",
    "NORAD_CAT_ID": 54181,
    "ELEMENT_SET_NO": 999,
    "REV_AT_EPOCH": 1677,
    "BSTAR": 0.0033357,
    "MEAN_MOTION_DOT": 0.00053265,
    "MEAN_MOTION_DDOT": 0
  },
  {
    "OBJECT_NAME": "STARLINK-5231",
    "OBJECT_ID": "2022-141AB",
    "EPOCH": "2023-02-12T02:36:41.023296",
    "MEAN_MOTION": 15.69968126,
    "ECCENTRICITY": 0.0005373,
    "INCLINATION": 53.2167,
    "RA_OF_ASC_NODE": 335.7803,
    "ARG_OF_PERICENTER": 91.6244,
    "MEAN_ANOMALY": 268.539,
    "EPHEMERIS_TYPE": 0,
    "CLASSIFICATION_TYPE": "U",
    "NORAD_CAT_ID": 54182,
    "ELEMENT_SET_NO": 999,
    "REV_AT_EPOCH": 1709,
    "BSTAR": 2.5107e-5,
    "MEAN_MOTION_DOT": 2.48e-5,
    "MEAN_MOTION_DDOT": 0
  },
  {
    "OBJECT_NAME": "STARLINK-5239",
    "OBJECT_ID": "2022-141AC",
    "EPOCH": "2023-02-11T04:43:45.027552",
    "MEAN_MOTION": 15.08888416,
    "ECCENTRICITY": 0.0001184,
    "INCLINATION": 53.2164,
    "RA_OF_ASC_NODE": 2.8781,
    "ARG_OF_PERICENTER": 122.3427,
    "MEAN_ANOMALY": 237.7679,
    "EPHEMERIS_TYPE": 0,
    "CLASSIFICATION_TYPE": "U",
    "NORAD_CAT_ID": 54183,
    "ELEMENT_SET_NO": 999,
    "REV_AT_EPOCH": 1663,
    "BSTAR": 0.0031966,
    "MEAN_MOTION_DOT": 0.00051022,
    "MEAN_MOTION_DDOT": 0
  },
  {
    "OBJECT_NAME": "STARLINK-5162",
    "OBJECT_ID": "2022-141AD",
    "EPOCH": "2023-02-11T22:02:23.407872",
    "MEAN_MOTION": 15.08845912,
    "ECCENTRICITY": 7.58e-5,
    "INCLINATION": 53.2183,
    "RA_OF_ASC_NODE": 359.5625,
    "ARG_OF_PERICENTER": 89.9889,
    "MEAN_ANOMALY": 270.119,
    "EPHEMERIS_TYPE": 0,
    "CLASSIFICATION_TYPE": "U",
    "NORAD_CAT_ID": 54184,
    "ELEMENT_SET_NO": 999,
    "REV_AT_EPOCH": 1674,
    "BSTAR": -9.7111e-5,
    "MEAN_MOTION_DOT": -1.833e-5,
    "MEAN_MOTION_DDOT": 0
  },
  {
    "OBJECT_NAME": "STARLINK-5235",
    "OBJECT_ID": "2022-141AE",
    "EPOCH": "2023-02-12T03:04:27.635232",
    "MEAN_MOTION": 15.08842595,
    "ECCENTRICITY": 9.58e-5,
    "INCLINATION": 53.2171,
    "RA_OF_ASC_NODE": 358.7377,
    "ARG_OF_PERICENTER": 95.2676,
    "MEAN_ANOMALY": 264.8425,
    "EPHEMERIS_TYPE": 0,
    "CLASSIFICATION_TYPE": "U",
    "NORAD_CAT_ID": 54185,
    "ELEMENT_SET_NO": 999,
    "REV_AT_EPOCH": 1677,
    "BSTAR": 0.00015861,
    "MEAN_MOTION_DOT": 2.238e-5,
    "MEAN_MOTION_DDOT": 0
  },
  {
    "OBJECT_NAME": "STARLINK-5194",
    "OBJECT_ID": "2022-141AF",
    "EPOCH": "2023-02-11T20:07:14.173536",
    "MEAN_MOTION": 15.08836316,
    "ECCENTRICITY": 0.0001562,
    "INCLINATION": 53.2193,
    "RA_OF_ASC_NODE": 350.5043,
    "ARG_OF_PERICENTER": 86.6554,
    "MEAN_ANOMALY": 273.4616,
    "EPHEMERIS_TYPE": 0,
    "CLASSIFICATION_TYPE": "U",
    "NORAD_CAT_ID": 54186,
    "ELEMENT_SET_NO": 999,
    "REV_AT_EPOCH": 1663,
    "BSTAR": 0.0001155,
    "MEAN_MOTION_DOT": 1.55e-5,
    "MEAN_MOTION_DDOT": 0
  }
]
